{
  "type": "FeatureCollection",
  "generator": "overpass-turbo",
  "copyright": "The data included in this document is from www.openstreetmap.org. The data is made available under ODbL.",
  "timestamp": "2026-08-25T18:58:52Z",
  "features": [
    {
      "type": "Feature",
      "properties": {
        "@id": "way/49797023",
        "addr:housenumber": "6111",
        "addr:street": "River Road",
        "building": "yes",
        "building:levels": "3",
        "leisure": "stadium",
        "name": "Richmond Olympic Oval",
        "operator": "The Richmond Olympic Oval Corporation",
        "sport": "basketball;ice_hockey;climbing;badminton;volleyball;soccer;table_tennis;fitness;cycling;ice_skating",
        "website": "https://www.richmondoval.ca/",
        "wheelchair": "yes",
        "wikidata": "Q744568",
        "wikipedia": "en:Richmond Olympic Oval"
      },
      "geometry": {
        "type": "Polygon",
        "coordinates": [
          [
            [
              -123.1504494,
              49.1753003
            ],
            [
              -123.1504628,
              49.1753253
            ],
            [
              -123.150612,
              49.1753072
            ],
            [
              -123.1506616,
              49.1753012
            ],
            [
              -123.1508112,
              49.1752832
            ],
            [
              -123.1508523,
              49.1752782
            ],
            [
              -123.151004,
              49.1752599
            ],
            [
              -123.151048,
              49.1752547
            ],
            [
              -123.151197,
              49.175237
            ],
            [
              -123.151238,
              49.1752322
            ],
            [
              -123.1513911,
              49.175214
            ],
            [
              -123.1514306,
              49.1752094
            ],
            [
              -123.1515828,
              49.1751913
            ],
            [
              -123.1516231,
              49.1751866
            ],
            [
              -123.1517749,
              49.1751686
            ],
            [
              -123.1518155,
              49.1751638
            ],
            [
              -123.1519678,
              49.1751458
            ],
            [
              -123.1520102,
              49.1751407
            ],
            [
              -123.1521645,
              49.1751225
            ],
            [
              -123.1522023,
              49.175118
            ],
            [
              -123.1523548,
              49.1750999
            ],
            [
              -123.152397,
              49.175095
            ],
            [
              -123.1525466,
              49.1750772
            ],
            [
              -123.1525901,
              49.1750721
            ],
            [
              -123.1527391,
              49.1750545
            ],
            [
              -123.1527786,
              49.1750498
            ],
            [
              -123.152931,
              49.1750317
            ],
            [
              -123.1529706,
              49.175027
            ],
            [
              -123.1531253,
              49.1749889
            ],
            [
              -123.15314,
              49.1749853
            ],
            [
              -123.1530748,
              49.1747405
            ],
            [
              -123.1530724,
              49.1747314
            ],
            [
              -123.1531445,
              49.1747239
            ],
            [
              -123.1531383,
              49.1746621
            ],
            [
              -123.1531356,
              49.1746225
            ],
            [
              -123.1531341,
              49.1745996
            ],
            [
              -123.153114,
              49.17453
            ],
            [
              -123.1530016,
              49.1742802
            ],
            [
              -123.1529505,
              49.1741667
            ],
            [
              -123.152925,
              49.1741689
            ],
            [
              -123.1528956,
              49.1740674
            ],
            [
              -123.1515459,
              49.1742264
            ],
            [
              -123.1513477,
              49.1742515
            ],
            [
              -123.1513129,
              49.1741615
            ],
            [
              -123.1511502,
              49.1741816
            ],
            [
              -123.1511151,
              49.174186
            ],
            [
              -123.1509534,
              49.174206
            ],
            [
              -123.1509235,
              49.1742097
            ],
            [
              -123.1507557,
              49.1742304
            ],
            [
              -123.1507785,
              49.1743237
            ],
            [
              -123.1502092,
              49.1743959
            ],
            [
              -123.1501928,
              49.174492
            ],
            [
              -123.1502287,
              49.1749096
            ],
            [
              -123.1502826,
              49.1750527
            ],
            [
              -123.1503573,
              49.1750422
            ],
            [
              -123.1503932,
              49.1751451
            ],
            [
              -123.1504317,
              49.1753033
            ],
            [
              -123.1504494,
              49.1753003
            ]
          ]
        ]
      },
      "id": "way/49797023"
    },
    {
      "type": "Feature",
      "properties": {
        "@id": "way/56701161",
        "addr:city": "Vancouver",
        "addr:housenumber": "2207",
        "addr:postcode": "V6T 1Z4",
        "addr:street": "Main Mall",
        "building": "university",
        "building:levels": "4",
        "name": "Earth Sciences Building",
        "roof:levels": "1"
      },
      "geometry": {
        "type": "Polygon",
        "coordinates": [
          [
            [
              -123.2521673,
              49.2634524
            ],
            [
              -123.2523059,
              49.2634033
            ],
            [
              -123.2529021,
              49.2631919
            ],
            [
              -123.2527617,
              49.2630168
            ],
            [
              -123.2523893,
              49.2631476
            ],
            [
              -123.2523343,
              49.2630808
            ],
            [
              -123.252,
              49.2626892
            ],
            [
              -123.2521546,
              49.262633
            ],
            [
              -123.2523065,
              49.2625777
            ],
            [
              -123.2522049,
              49.2624588
            ],
            [
              -123.2521817,
              49.2624673
            ],
            [
              -123.2520026,
              49.2625322
            ],
            [
              -123.251614,
              49.2626735
            ],
            [
              -123.2515269,
              49.2627053
            ],
            [
              -123.2515636,
              49.2627491
            ],
            [
              -123.25196,
              49.2632106
            ],
            [
              -123.2521673,
              49.2634524
            ]
          ]
        ]
      },
      "id": "way/56701161"
    },
    {
      "type": "Feature",
      "properties": {
        "@id": "way/85240507",
        "addr:city": "Vancouver",
        "addr:housenumber": "1055",
        "addr:postcode": "V6C 0C3",
        "addr:street": "Canada Place",
        "amenity": "conference_centre",
        "building": "yes",
        "building:levels": "4",
        "email": "info@vancouverconventioncentre.com",
        "name": "Vancouver Convention Centre West",
        "name:ko": "밴쿠버 컨벤션 센터 웨스트",
        "old_name": "Vancouver Convention Centre",
        "phone": "+1-604-689-8232",
        "roof:colour": "#8c8885",
        "toilets:wheelchair": "yes",
        "website": "https://www.vancouverconventioncentre.com/",
        "wheelchair": "yes",
        "wikidata": "Q2742735"
      },
      "geometry": {
        "type": "Polygon",
        "coordinates": [
          [
            [
              -123.1155176,
              49.2882636
            ],
            [
              -123.1154577,
              49.2883236
            ],
            [
              -123.1152813,
              49.2885278
            ],
            [
              -123.1143515,
              49.2893172
            ],
            [
              -123.1151493,
              49.2895387
            ],
            [
              -123.1151671,
              49.2895097
            ],
            [
              -123.115454,
              49.2895875
            ],
            [
              -123.1154395,
              49.2896116
            ],
            [
              -123.1163048,
              49.2898396
            ],
            [
              -123.1175518,
              49.2890518
            ],
            [
              -123.1170871,
              49.2887613
            ],
            [
              -123.116908,
              49.2886494
            ],
            [
              -123.1161334,
              49.2884345
            ],
            [
              -123.1160661,
              49.2884158
            ],
            [
              -123.1155176,
              49.2882636
            ]
          ]
        ]
      },
      "id": "way/85240507"
    },
    {
      "type": "Feature",
      "properties": {
        "@id": "way/306889744",
        "building": "retail",
        "building:levels": "4",
        "height": "17.3",
        "name": "oN5 Building",
        "roof:levels": "0",
        "roof:shape": "flat"
      },
      "geometry": {
        "type": "Polygon",
        "coordinates": [
          [
            [
              -123.1042017,
              49.2668204
            ],
            [
              -123.1041995,
              49.2669004
            ],
            [
              -123.1043089,
              49.2669018
            ],
            [
              -123.104311,
              49.2668287
            ],
            [
              -123.10432,
              49.2665751
            ],
            [
              -123.1042089,
              49.266573
            ],
            [
              -123.1042017,
              49.2668204
            ]
          ]
        ]
      },
      "id": "way/306889744"
    },
    {
      "type": "Feature",
      "properties": {
        "@id": "way/473496555",
        "addr:city": "Vancouver",
        "addr:housenumber": "2260",
        "addr:postcode": "V6T 1Z4",
        "addr:street": "West Mall",
        "alt_name": "CIRS",
        "building": "university",
        "name": "Centre for Interactive Research on Sustainability",
        "short_name": "CIRS",
        "website": "https://cirs.ubc.ca/",
        "year_of_construction": "2011"
      },
      "geometry": {
        "type": "Polygon",
        "coordinates": [
          [
            [
              -123.253002,
              49.2623035
            ],
            [
              -123.2534197,
              49.2621571
            ],
            [
              -123.2533675,
              49.2619819
            ],
            [
              -123.2533076,
              49.2617807
            ],
            [
              -123.25309,
              49.2618569
            ],
            [
              -123.2527377,
              49.2619803
            ],
            [
              -123.2528117,
              49.2620703
            ],
            [
              -123.2529383,
              49.2622262
            ],
            [
              -123.253002,
              49.2623035
            ]
          ]
        ]
      },
      "id": "way/473496555"
    },
    {
      "type": "Feature",
      "properties": {
        "@id": "way/517623349",
        "addr:city": "Vancouver",
        "addr:housenumber": "6880",
        "addr:postcode": "V6T 1K2",
        "addr:street": "Walter Gage Road",
        "architect": "Acton Ostry Architects",
        "building": "residential",
        "building:levels": "18",
        "building:levels:underground": "0",
        "building:material": "wood",
        "height": "53",
        "name": "Brock Commons - Tallwood House",
        "operator": "University of British Columbia",
        "smoking": "no",
        "start_date": "2017-07-01",
        "website": "https://vancouver.housing.ubc.ca/residences/brock-commons/",
        "wheelchair": "yes",
        "wikidata": "Q85749160",
        "wikipedia": "en:Brock Commons Tallwood House"
      },
      "geometry": {
        "type": "Polygon",
        "coordinates": [
          [
            [
              -123.2510641,
              49.2696943
            ],
            [
              -123.251486,
              49.2695461
            ],
            [
              -123.2518015,
              49.269434
            ],
            [
              -123.2516876,
              49.2692975
            ],
            [
              -123.2513522,
              49.2694167
            ],
            [
              -123.2509534,
              49.2695556
            ],
            [
              -123.2510641,
              49.2696943
            ]
          ]
        ]
      },
      "id": "way/517623349"
    },
    {
      "type": "Feature",
      "properties": {
        "@id": "way/980707209",
        "building": "grandstand",
        "covered": "yes"
      },
      "geometry": {
        "type": "Polygon",
        "coordinates": [
          [
            [
              -122.9223668,
              49.2790933
            ],
            [
              -122.9218115,
              49.2790059
            ],
            [
              -122.9217562,
              49.2791553
            ],
            [
              -122.9223115,
              49.2792428
            ],
            [
              -122.9223668,
              49.2790933
            ]
          ]
        ]
      },
      "id": "way/980707209"
    },
    {
      "type": "Feature",
      "properties": {
        "@id": "way/1367291505",
        "backup_generator": "yes",
        "building": "dormitory",
        "building:levels": "12",
        "building:levels:underground": "1",
        "height": "36.5 m",
        "name": "SW 7 - Tall Timber Student Housing",
        "website": "https://www.bcit.ca/campus-plan/tall-timber-student-housing/"
      },
      "geometry": {
        "type": "Polygon",
        "coordinates": [
          [
            [
              -123.0029439,
              49.2495098
            ],
            [
              -123.0033945,
              49.2495092
            ],
            [
              -123.0034513,
              49.2495093
            ],
            [
              -123.0036162,
              49.2495095
            ],
            [
              -123.0036827,
              49.2495096
            ],
            [
              -123.0036848,
              49.2494045
            ],
            [
              -123.0036853,
              49.2493822
            ],
            [
              -123.0036406,
              49.2493827
            ],
            [
              -123.0036481,
              49.2489704
            ],
            [
              -123.00355,
              49.2489713
            ],
            [
              -123.0034541,
              49.2489723
            ],
            [
              -123.0034379,
              49.2489725
            ],
            [
              -123.0034373,
              49.2490268
            ],
            [
              -123.0034371,
              49.249047
            ],
            [
              -123.0034366,
              49.2490974
            ],
            [
              -123.0034366,
              49.2491269
            ],
            [
              -123.0034361,
              49.2491557
            ],
            [
              -123.0034356,
              49.2492148
            ],
            [
              -123.0034355,
              49.2492364
            ],
            [
              -123.0034353,
              49.2492565
            ],
            [
              -123.0034351,
              49.2492716
            ],
            [
              -123.0034349,
              49.2493056
            ],
            [
              -123.0034344,
              49.2493616
            ],
            [
              -123.0034342,
              49.2493816
            ],
            [
              -123.0032136,
              49.2493833
            ],
            [
              -123.003078,
              49.2493844
            ],
            [
              -123.0030548,
              49.2493846
            ],
            [
              -123.0029439,
              49.2493854
            ],
            [
              -123.0029439,
              49.2494758
            ],
            [
              -123.0029439,
              49.2494995
            ],
            [
              -123.0029439,
              49.2495098
            ]
          ]
        ]
      },
      "id": "way/1367291505"
    },
    {
      "type": "Feature",
      "properties": {
        "@id": "way/1392684956",
        "building:levels": "4",
        "building:min_level": "1",
        "building:part": "yes"
      },
      "geometry": {
        "type": "Polygon",
        "coordinates": [
          [
            [
              -123.2529383,
              49.2622262
            ],
            [
              -123.253002,
              49.2623035
            ],
            [
              -123.2534197,
              49.2621571
            ],
            [
              -123.2533675,
              49.2619819
            ],
            [
              -123.2533076,
              49.2617807
            ],
            [
              -123.25309,
              49.2618569
            ],
            [
              -123.2527377,
              49.2619803
            ],
            [
              -123.2528117,
              49.2620703
            ],
            [
              -123.2531427,
              49.2619543
            ],
            [
              -123.2532707,
              49.2621097
            ],
            [
              -123.2529383,
              49.2622262
            ]
          ]
        ]
      },
      "id": "way/1392684956"
    },
    {
      "type": "Feature",
      "properties": {
        "@id": "way/1392684957",
        "building:levels": "1",
        "building:part": "yes"
      },
      "geometry": {
        "type": "Polygon",
        "coordinates": [
          [
            [
              -123.253002,
              49.2623035
            ],
            [
              -123.2534197,
              49.2621571
            ],
            [
              -123.2533675,
              49.2619819
            ],
            [
              -123.2533076,
              49.2617807
            ],
            [
              -123.25309,
              49.2618569
            ],
            [
              -123.2527377,
              49.2619803
            ],
            [
              -123.2528117,
              49.2620703
            ],
            [
              -123.2529383,
              49.2622262
            ],
            [
              -123.253002,
              49.2623035
            ]
          ]
        ]
      },
      "id": "way/1392684957"
    },
    {
      "type": "Feature",
      "properties": {
        "@id": "way/1417368987",
        "amenity": "community_centre",
        "building": "construction",
        "name": "Marpole Oakridge Community Centre",
        "note": "New community centre building currently under construction.\n\nhttps://vancouver.ca/parks-recreation-culture/marpole-community-centre-renewal.aspx"
      },
      "geometry": {
        "type": "Polygon",
        "coordinates": [
          [
            [
              -123.128406,
              49.2149802
            ],
            [
              -123.1296872,
              49.2149913
            ],
            [
              -123.1296953,
              49.2145895
            ],
            [
              -123.1284954,
              49.2145791
            ],
            [
              -123.1284937,
              49.2146628
            ],
            [
              -123.1284532,
              49.2146625
            ],
            [
              -123.1284516,
              49.2147372
            ],
            [
              -123.1284109,
              49.2147368
            ],
            [
              -123.128406,
              49.2149802
            ]
          ]
        ]
      },
      "id": "way/1417368987"
    },
    {
      "type": "Feature",
      "properties": {
        "@id": "way/1420874317",
        "building": "construction",
        "building:levels": "10"
      },
      "geometry": {
        "type": "Polygon",
        "coordinates": [
          [
            [
              -123.0791781,
              49.2655969
            ],
            [
              -123.0791835,
              49.2654079
            ],
            [
              -123.0785449,
              49.2654001
            ],
            [
              -123.0782172,
              49.2654637
            ],
            [
              -123.0782138,
              49.2655852
            ],
            [
              -123.0791781,
              49.2655969
            ]
          ]
        ]
      },
      "id": "way/1420874317"
    },
    {
      "type": "Feature",
      "properties": {
        "@id": "way/1450441243",
        "building": "roof",
        "layer": "1"
      },
      "geometry": {
        "type": "Polygon",
        "coordinates": [
          [
            [
              -123.0372364,
              49.2834458
            ],
            [
              -123.037146,
              49.2834888
            ],
            [
              -123.0370154,
              49.2835562
            ],
            [
              -123.0368985,
              49.2836303
            ],
            [
              -123.0367528,
              49.2837337
            ],
            [
              -123.0366396,
              49.2838289
            ],
            [
              -123.0365209,
              49.2839368
            ],
            [
              -123.0363077,
              49.2841262
            ],
            [
              -123.0362081,
              49.284223
            ],
            [
              -123.0362311,
              49.2842614
            ],
            [
              -123.0363507,
              49.2842306
            ],
            [
              -123.0364988,
              49.284218
            ],
            [
              -123.0366678,
              49.2842169
            ],
            [
              -123.0368673,
              49.2842233
            ],
            [
              -123.0370711,
              49.2842426
            ],
            [
              -123.0372287,
              49.2842666
            ],
            [
              -123.0374119,
              49.2843025
            ],
            [
              -123.0375423,
              49.2843369
            ],
            [
              -123.0377196,
              49.284392
            ],
            [
              -123.037796,
              49.2844199
            ],
            [
              -123.0378792,
              49.2844622
            ],
            [
              -123.037902,
              49.284451
            ],
            [
              -123.0378364,
              49.2842331
            ],
            [
              -123.0377593,
              49.2840535
            ],
            [
              -123.0376721,
              49.2838779
            ],
            [
              -123.0375762,
              49.2836839
            ],
            [
              -123.0375689,
              49.2836457
            ],
            [
              -123.0375612,
              49.283624
            ],
            [
              -123.037541,
              49.2836067
            ],
            [
              -123.0375013,
              49.2835798
            ],
            [
              -123.0374049,
              49.2834668
            ],
            [
              -123.0373678,
              49.2834313
            ],
            [
              -123.037317,
              49.2834271
            ],
            [
              -123.0372364,
              49.2834458
            ]
          ]
        ]
      },
      "id": "way/1450441243"
    },
    {
      "type": "Feature",
      "properties": {
        "@id": "way/1485098081",
        "building": "roof",
        "layer": "1"
      },
      "geometry": {
        "type": "Polygon",
        "coordinates": [
          [
            [
              -123.1513129,
              49.1741615
            ],
            [
              -123.1512843,
              49.1740891
            ],
            [
              -123.1511335,
              49.174106
            ],
            [
              -123.1511502,
              49.1741816
            ],
            [
              -123.1513129,
              49.1741615
            ]
          ]
        ]
      },
      "id": "way/1485098081"
    },
    {
      "type": "Feature",
      "properties": {
        "@id": "way/1485098082",
        "building": "roof",
        "layer": "1"
      },
      "geometry": {
        "type": "Polygon",
        "coordinates": [
          [
            [
              -123.1511151,
              49.174186
            ],
            [
              -123.1510886,
              49.1741135
            ],
            [
              -123.1509369,
              49.1741303
            ],
            [
              -123.1509534,
              49.174206
            ],
            [
              -123.1511151,
              49.174186
            ]
          ]
        ]
      },
      "id": "way/1485098082"
    },
    {
      "type": "Feature",
      "properties": {
        "@id": "way/1485098083",
        "building": "roof",
        "layer": "1"
      },
      "geometry": {
        "type": "Polygon",
        "coordinates": [
          [
            [
              -123.1509235,
              49.1742097
            ],
            [
              -123.1508983,
              49.1741372
            ],
            [
              -123.1507438,
              49.1741549
            ],
            [
              -123.1507557,
              49.1742304
            ],
            [
              -123.1509235,
              49.1742097
            ]
          ]
        ]
      },
      "id": "way/1485098083"
    },
    {
      "type": "Feature",
      "properties": {
        "@id": "way/1485098084",
        "building": "roof",
        "layer": "1"
      },
      "geometry": {
        "type": "Polygon",
        "coordinates": [
          [
            [
              -123.150612,
              49.1753072
            ],
            [
              -123.1504628,
              49.1753253
            ],
            [
              -123.1505027,
              49.1753829
            ],
            [
              -123.1506133,
              49.175372
            ],
            [
              -123.150612,
              49.1753072
            ]
          ]
        ]
      },
      "id": "way/1485098084"
    },
    {
      "type": "Feature",
      "properties": {
        "@id": "way/1485098085",
        "building": "roof",
        "layer": "1"
      },
      "geometry": {
        "type": "Polygon",
        "coordinates": [
          [
            [
              -123.1506616,
              49.1753012
            ],
            [
              -123.150696,
              49.1753605
            ],
            [
              -123.1508099,
              49.1753492
            ],
            [
              -123.1508112,
              49.1752832
            ],
            [
              -123.1506616,
              49.1753012
            ]
          ]
        ]
      },
      "id": "way/1485098085"
    },
    {
      "type": "Feature",
      "properties": {
        "@id": "way/1485098086",
        "building": "roof",
        "layer": "1"
      },
      "geometry": {
        "type": "Polygon",
        "coordinates": [
          [
            [
              -123.151004,
              49.1752599
            ],
            [
              -123.1508523,
              49.1752782
            ],
            [
              -123.1508886,
              49.1753403
            ],
            [
              -123.1510014,
              49.1753262
            ],
            [
              -123.151004,
              49.1752599
            ]
          ]
        ]
      },
      "id": "way/1485098086"
    },
    {
      "type": "Feature",
      "properties": {
        "@id": "way/1485098087",
        "building": "roof",
        "layer": "1"
      },
      "geometry": {
        "type": "Polygon",
        "coordinates": [
          [
            [
              -123.151197,
              49.175237
            ],
            [
              -123.151048,
              49.1752547
            ],
            [
              -123.1510824,
              49.1753174
            ],
            [
              -123.151195,
              49.1753036
            ],
            [
              -123.151197,
              49.175237
            ]
          ]
        ]
      },
      "id": "way/1485098087"
    },
    {
      "type": "Feature",
      "properties": {
        "@id": "way/1485098088",
        "building": "roof",
        "layer": "1"
      },
      "geometry": {
        "type": "Polygon",
        "coordinates": [
          [
            [
              -123.1513911,
              49.175214
            ],
            [
              -123.151238,
              49.1752322
            ],
            [
              -123.1512731,
              49.1752944
            ],
            [
              -123.1513862,
              49.1752807
            ],
            [
              -123.1513911,
              49.175214
            ]
          ]
        ]
      },
      "id": "way/1485098088"
    },
    {
      "type": "Feature",
      "properties": {
        "@id": "way/1485098089",
        "building": "roof",
        "layer": "1"
      },
      "geometry": {
        "type": "Polygon",
        "coordinates": [
          [
            [
              -123.1515828,
              49.1751913
            ],
            [
              -123.1514306,
              49.1752094
            ],
            [
              -123.1514649,
              49.1752712
            ],
            [
              -123.1515807,
              49.1752579
            ],
            [
              -123.1515828,
              49.1751913
            ]
          ]
        ]
      },
      "id": "way/1485098089"
    },
    {
      "type": "Feature",
      "properties": {
        "@id": "way/1485098090",
        "building": "roof",
        "layer": "1"
      },
      "geometry": {
        "type": "Polygon",
        "coordinates": [
          [
            [
              -123.1517749,
              49.1751686
            ],
            [
              -123.1516231,
              49.1751866
            ],
            [
              -123.1516581,
              49.175249
            ],
            [
              -123.1517735,
              49.1752365
            ],
            [
              -123.1517749,
              49.1751686
            ]
          ]
        ]
      },
      "id": "way/1485098090"
    },
    {
      "type": "Feature",
      "properties": {
        "@id": "way/1485098091",
        "building": "roof",
        "layer": "1"
      },
      "geometry": {
        "type": "Polygon",
        "coordinates": [
          [
            [
              -123.1519678,
              49.1751458
            ],
            [
              -123.1518155,
              49.1751638
            ],
            [
              -123.1518506,
              49.1752266
            ],
            [
              -123.1519659,
              49.1752116
            ],
            [
              -123.1519678,
              49.1751458
            ]
          ]
        ]
      },
      "id": "way/1485098091"
    },
    {
      "type": "Feature",
      "properties": {
        "@id": "way/1485098092",
        "building": "roof",
        "layer": "1"
      },
      "geometry": {
        "type": "Polygon",
        "coordinates": [
          [
            [
              -123.1521645,
              49.1751225
            ],
            [
              -123.1520102,
              49.1751407
            ],
            [
              -123.1520444,
              49.1752034
            ],
            [
              -123.1521608,
              49.1751896
            ],
            [
              -123.1521645,
              49.1751225
            ]
          ]
        ]
      },
      "id": "way/1485098092"
    },
    {
      "type": "Feature",
      "properties": {
        "@id": "way/1485098093",
        "building": "roof",
        "layer": "1"
      },
      "geometry": {
        "type": "Polygon",
        "coordinates": [
          [
            [
              -123.1523548,
              49.1750999
            ],
            [
              -123.1522023,
              49.175118
            ],
            [
              -123.152239,
              49.1751813
            ],
            [
              -123.1523545,
              49.1751676
            ],
            [
              -123.1523548,
              49.1750999
            ]
          ]
        ]
      },
      "id": "way/1485098093"
    },
    {
      "type": "Feature",
      "properties": {
        "@id": "way/1485098102",
        "building": "roof",
        "layer": "1"
      },
      "geometry": {
        "type": "Polygon",
        "coordinates": [
          [
            [
              -123.1525466,
              49.1750772
            ],
            [
              -123.152397,
              49.175095
            ],
            [
              -123.152432,
              49.175157
            ],
            [
              -123.1525469,
              49.1751445
            ],
            [
              -123.1525466,
              49.1750772
            ]
          ]
        ]
      },
      "id": "way/1485098102"
    },
    {
      "type": "Feature",
      "properties": {
        "@id": "way/1485098103",
        "building": "roof",
        "layer": "1"
      },
      "geometry": {
        "type": "Polygon",
        "coordinates": [
          [
            [
              -123.1527391,
              49.1750545
            ],
            [
              -123.1525901,
              49.1750721
            ],
            [
              -123.1526229,
              49.1751354
            ],
            [
              -123.1527383,
              49.1751211
            ],
            [
              -123.1527391,
              49.1750545
            ]
          ]
        ]
      },
      "id": "way/1485098103"
    },
    {
      "type": "Feature",
      "properties": {
        "@id": "way/1485098104",
        "building": "roof",
        "layer": "1"
      },
      "geometry": {
        "type": "Polygon",
        "coordinates": [
          [
            [
              -123.152931,
              49.1750317
            ],
            [
              -123.1527786,
              49.1750498
            ],
            [
              -123.1528164,
              49.1751135
            ],
            [
              -123.1529325,
              49.1750999
            ],
            [
              -123.152931,
              49.1750317
            ]
          ]
        ]
      },
      "id": "way/1485098104"
    },
    {
      "type": "Feature",
      "properties": {
        "@id": "way/1485098105",
        "building": "roof",
        "layer": "1"
      },
      "geometry": {
        "type": "Polygon",
        "coordinates": [
          [
            [
              -123.1531253,
              49.1749889
            ],
            [
              -123.1529706,
              49.175027
            ],
            [
              -123.1530123,
              49.1750894
            ],
            [
              -123.1531254,
              49.1750751
            ],
            [
              -123.1531253,
              49.1749889
            ]
          ]
        ]
      },
      "id": "way/1485098105"
    }
  ]
}